HST                     
1 20580U 90037B   21264.89535856  .00000685  00000-0  30424-4 0  9994
2 20580  28.4693 146.9067 0002702  25.4709  36.1074 15.09742038525585
POLAR                   
1 23802U 96013A   21261.16277483  .00000202  00000-0  00000-0 0  9998
2 23802  78.7217 244.4156 5950777 268.0965  27.0549  1.29847023122357
SWAS                    
1 25560U 98071A   21264.83001557  .00000223  00000-0  29293-4 0  9993
2 25560  69.8981 302.5902 0008448 342.7459  17.3409 14.94144922237893
CXO                     
1 25867U 99040B   21265.95887554  .00000688  00000-0  00000-0 0  9999
2 25867  52.7395 251.0716 8468093 227.1937   0.6776  0.37805707 10804
XMM-NEWTON              
1 25989U 99066A   21266.24333386 -.00000015  00000-0  00000-0 0  9999
2 25989  70.6532 309.9743 6433774  89.5029 359.9395  0.50136526 14343
TERRA                   
1 25994U 99068A   21264.92357594  .00000080  00000-0  27730-4 0  9991
2 25994  98.1691 337.5473 0001395  92.8833  23.1984 14.57129928157398
CLUSTER II-FM7 (SAMBA)  
1 26410U 00041A   21266.99494495 -.00000071  00000-0  00000-0 0  9997
2 26410 133.1173 345.3252 5095491 194.1343   0.4055  0.44209801 12630
CLUSTER II-FM6 (SALSA)  
1 26411U 00041B   21266.98953574 -.00000188  00000-0  00000-0 0  9994
2 26411 134.2076 347.5053 6641079 198.7486   0.4214  0.44218339 12673
CLUSTER II-FM5 (RUMBA)  
1 26463U 00045A   21264.73249569 -.00000136  00000-0  00000-0 0  9991
2 26463 137.8347 347.5736 6180810 199.1459   0.6301  0.44215321 12569
CLUSTER II-FM8 (TANGO)  
1 26464U 00045B   21266.99435018 -.00000071  00000-0  00000-0 0  9996
2 26464 133.1210 345.3205 5092987 194.1234   0.4213  0.44220138 12648
ODIN                    
1 26702U 01007A   21264.78774491  .00000875  00000-0  59767-4 0  9995
2 26702  97.5359 279.5580 0011983 125.4029 234.8320 15.08657274125755
TIMED                   
1 26998U 01055B   21264.80067573  .00000164  00000-0  21754-4 0  9990
2 26998  74.0708  94.6888 0000730 339.4352  20.6800 14.88346791 73034
RHESSI                  
1 27370U 02004A   21264.62231445  .00003876  00000-0  11263-3 0  9997
2 27370  38.0321 227.2115 0010661 161.2030 198.9137 15.35782850 85189
INTEGRAL                
1 27540U 02048A   21262.24938979 -.00000297  00000-0  00000-0 0  9995
2 27540  67.1414  77.6085 8984186 299.9306 163.6141  0.37565382 20135
CORIOLIS                
1 27640U 03001A   21264.77621764 -.00000004  00000-0  18696-4 0  9997
2 27640  98.7231 273.0500 0014771 146.6871  25.9535 14.19082107968860
SORCE                   
1 27651U 03004A   21264.75068287  .00000197  00000-0  34465-4 0  9999
2 27651  39.9951 277.0581 0022435  22.0870 338.0882 14.89371614 12991
MOST                    
1 27843U 03031D   21264.87710091 -.00000008  00000-0  16428-4 0  9993
2 27843  98.7106 271.4300 0009626 196.8017 163.2842 14.20644985945118
SCISAT 1                
1 27858U 03036A   21264.35354525  .00000077  00000-0  15771-4 0  9998
2 27858  73.9355 355.3039 0006576  96.2427 263.9497 14.77372254975683
SWIFT                   
1 28485U 04047A   21264.66946942  .00001224  00000-0  52618-4 0  9998
2 28485  20.5575  34.9697 0011076 132.5079 227.6292 15.05133355922984
FORMOSAT-3 FM6          
1 29047U 06011A   21264.65189483  .00000076  00000-0  45879-4 0  9999
2 29047  71.9763 248.5803 0051102 344.0042  15.9477 14.28836782807167
FORMOSAT-3 FM1          
1 29048U 06011B   21264.96198763  .00000104  00000-0  57106-4 0  9993
2 29048  71.9665 158.3238 0045304 303.6295  56.0522 14.28802775809688
FORMOSAT-3 FM5          
1 29049U 06011C   21264.93795127  .00000071  00000-0  44351-4 0  9999
2 29049  72.0219 332.6478 0036291 324.8583  35.0160 14.28884512805476
FORMOSAT-3 FM3          
1 29050U 06011D   21264.70919041  .00000231  00000-0  58580-4 0  9996
2 29050  72.0149  71.9930 0050541 208.2380 151.6032 14.59116315823588
FORMOSAT-3 FM4          
1 29051U 06011E   21264.64694057  .00000055  00000-0  37215-4 0  9993
2 29051  72.0037 234.3950 0069182 208.8985 150.8314 14.28916227808011
FORMOSAT-3 FM2          
1 29052U 06011F   21264.82248130  .00000107  00000-0  58208-4 0  9994
2 29052  72.0341 309.6262 0042282 285.1919  74.4544 14.29026170805539
CLOUDSAT                
1 29107U 06016A   21264.92480991  .00000124  00000-0  33793-4 0  9995
2 29107  98.2876 218.2520 0004324  69.1318 291.0346 14.62720906819776
CALIPSO                 
1 29108U 06016B   21264.90825500  .00000168  00000-0  42538-4 0  9998
2 29108  98.2848 217.9362 0001335  83.3696 276.7657 14.62593265819762
HINODE (SOLAR-B)        
1 29479U 06041A   21264.75920170  .00000096  00000-0  27202-4 0  9990
2 29479  98.1350 278.2094 0019012 355.7166   4.3871 14.64589757801421
SJ-6C                   
1 29505U 06046A   21264.86745561  .00000507  00000-0  51370-4 0  9996
2 29505  97.7978 282.5543 0003085 306.9299  53.1656 14.95250994812558
SJ-6D                   
1 29506U 06046B   21264.86557613  .00000237  00000-0  27881-4 0  9996
2 29506  97.8176 282.7778 0003088  58.1053 302.0484 14.93638701812042
AGILE                   
1 31135U 07013A   21264.28463848  .00003491  00000-0  68073-4 0  9997
2 31135   2.4665 186.8477 0011350 188.3833 171.6031 15.34007977435502
AIM                     
1 31304U 07015A   21264.66257621  .00001474  00000-0  83435-4 0  9997
2 31304  97.8584 169.5575 0004047 204.0208 156.0835 15.14721485790476
FGRST (GLAST)           
1 33053U 08029A   21264.53160710  .00000662  00000-0  20931-4 0  9994
2 33053  25.5817 199.8965 0011963 305.9844  53.9582 15.11592390732958
WISE                    
1 36119U 09071A   21264.83317646  .00001369  00000-0  47899-4 0  9990
2 36119  97.2765 299.6153 0003052 145.7806 214.3633 15.31196566654396
SDO                     
1 36395U 10005A   21264.57673765 -.00000063  00000-0  00000+0 0  9992
2 36395  31.1384 113.6144 0000373 257.9837  94.9244  1.00274966 42689
CRYOSAT 2               
1 36508U 10013A   21264.87994437  .00000006  00000-0  63513-6 0  9993
2 36508  92.0191 219.0685 0008222  83.4099 276.8044 14.51904509607163
X-SAT                   
1 37389U 11015C   21264.75105546 -.00000050  00000-0 -36886-5 0  9999
2 37389  98.3745 306.1531 0014613  24.5461 335.6403 14.24390110541957
GCOM-W1 (SHIZUKU)       
1 38337U 12025A   21264.86446006  .00000067  00000-0  24945-4 0  9994
2 38337  98.2138 204.1873 0001290  40.5383  18.4745 14.57118853497201
NUSTAR                  
1 38358U 12031A   21264.37733175  .00001183  00000-0  49522-4 0  9994
2 38358   6.0258 160.1300 0011054  54.6462 305.4699 14.88610576504684
NEOSSAT                 
1 39089U 13009D   21264.80046043  .00000060  00000-0  36550-4 0  9991
2 39089  98.4373 102.6130 0011391   2.6965 357.4279 14.34583781448693
IRIS                    
1 39197U 13033A   21264.79936366  .00000155  00000-0  28064-4 0  9998
2 39197  97.9683  88.1371 0027639 175.2600 184.8878 14.78897819444265
HISAKI (SPRINT-A)       
1 39253U 13049A   21264.80087831  .00000093  00000-0  41662-4 0  9994
2 39253  29.7214   9.9465 0137283  40.0098 321.0498 13.55249252396639
CASSIOPE                
1 39265U 13055A   21264.82323609  .00009645  00000-0  26479-3 0  9992
2 39265  80.9690 190.8494 0646402  30.8647 332.8906 14.33052797413790
STSAT-3                 
1 39422U 13066G   21264.76235202 -.00000144  00000-0 -95089-5 0  9995
2 39422  97.4776 279.4618 0024430  96.9640 263.4320 14.90015947425827
SWARM B                 
1 39451U 13067A   21264.84718619  .00000525  00000-0  21353-4 0  9998
2 39451  87.7541 141.8507 0001573  96.4450 263.6975 15.22129187420086
SWARM A                 
1 39452U 13067B   21264.88204595  .00001953  00000-0  39079-4 0  9996
2 39452  87.3609 322.6135 0003227  79.1992 280.9629 15.46022832440435
SWARM C                 
1 39453U 13067C   21264.88202187  .00001951  00000-0  39051-4 0  9990
2 39453  87.3461 322.6316 0003224  79.1896 280.9725 15.46020498440391
BRITE-CA1 (TORONTO)     
1 40020U 14033L   21264.72519388  .00000059  00000-0  18357-4 0  9997
2 40020  97.7513  72.9143 0088173  41.4484 319.3365 14.66770454388269
OCO 2                   
1 40059U 14035A   21264.85010177  .00000050  00000-0  21225-4 0  9996
2 40059  98.2145 204.9177 0001249  89.6110 270.5232 14.57105329384216
BRITE-PL2 (HEWELIUSZ)   
1 40119U 14049B   21264.80449864  .00000164  00000-0  25779-4 0  9996
2 40119  97.8885 358.2837 0018291  44.7054 315.5632 14.84702560384235
RESURS P2               
1 40360U 14087A   21264.96946429  .00001113  00000-0  35569-4 0  9995
2 40360  97.2255 350.4689 0008695 343.5275 130.8356 15.34506489377061
MMS 1                   
1 40482U 15011C   21258.42058084 -.00001860  00000-0  00000+0 0  9990
2 40482  33.5007 114.6989 8436997  37.2833  47.6472  0.28495839 12515
MMS 2                   
1 40483U 15011A   21258.46668899 -.00001857  00000-0  00000+0 0  9992
2 40483  33.5068 114.6905 8434770  37.2948  52.3509  0.28491614 12493
MMS 3                   
1 40484U 15011C   21258.46668899 -.00001860  00000-0  00000+0 0  9997
2 40484  33.4821 114.6504 8437754  37.3586  52.3120  0.28489266 12498
MMS 4                   
1 40485U 15011D   21258.42057985 -.00001860  00000-0  00000+0 0  9992
2 40485  33.5009 114.7085 8435900  37.2916  47.5998  0.28495883 12491
ASTROSAT                
1 40930U 15052A   21264.69684489  .00000815  00000-0  25260-4 0  9991
2 40930   5.9968 294.4560 0009093 310.8763  49.0577 14.76398923323365
DAMPE                   
1 41173U 15078A   21264.83753654  .00000215  00000-0  11753-4 0  9992
2 41173  97.3559 255.1696 0015509  67.8322  48.4882 15.24055398320661
PISAT                   
1 41784U 16059B   21264.90239612  .00000124  00000-0  32726-4 0  9993
2 41784  97.9576 313.1622 0030638 299.1691  60.6447 14.63660499266407
HXMT (HUIYAN)           
1 42758U 17034A   21264.81568297  .00000495  00000-0  44079-4 0  9998
2 42758  43.0186  24.1486 0008051  32.6256 101.9417 15.09313723235572
FLYING LAPTOP           
1 42831U 17042G   21264.77766447  .00000353  00000-0  40546-4 0  9999
2 42831  97.4560 129.3798 0013910 179.3678 180.7582 14.91348317228043
PICSAT                  
1 43132U 18004X   21264.44599535  .00002662  00000-0  10538-3 0  9991
2 43132  97.4031 338.1211 0007795 221.5380 138.5267 15.26297586205322
ZHANGZHENG-1 (CSES)     
1 43194U 18015C   21264.84008185  .00001606  00000-0  75298-4 0  9993
2 43194  97.4907  31.5817 0011124 297.8172 165.0189 15.21103399201792
ICON                    
1 44628U 19068A   21264.66964872  .00000706  00000-0  48268-4 0  9996
2 44628  26.9892 263.9119 0018479 303.3740  56.5050 14.92028343106376
SALSAT                  
1 46495U 20068K   21264.96268074  .00000909  00000-0  70905-4 0  9994
2 46495  97.6977 201.9122 0018384 105.0412 255.2843 15.03560254 53838
